IONOSFERA-M 4           
1 64877U 25155B   26160.18596606  .00000041  00000+0  38330-4 0  9991
2 64877  98.6020 122.2101 0000766 117.2810 242.8446 14.21487248 45265
MICROCARB               
1 64899U 25156A   26160.19832073  .00000452  00000+0  79257-4 0  9997
2 64899  97.9831 237.4782 0015121 300.1203  59.8505 14.72317356 46794
CO3D 3                  
1 64900U 25156B   26160.15725360  .00004292  00000+0  20130-3 0  9997
2 64900  97.4327 238.9657 0001092 133.3839 226.7487 15.20195883 48319
CO3D 4                  
1 64901U 25156C   26159.95993787  .00000283  00000+0  16170-4 0  9990
2 64901  97.4332 238.7713 0000729  27.5039 332.6234 15.20199351 48286
CO3D 2                  
1 64902U 25156D   26160.18988280  .00003661  00000+0  17213-3 0  9991
2 64902  97.4325 238.8968 0001419 115.1478 244.9904 15.20210763 48314
CO3D 1                  
1 64903U 25156E   26160.19003318  .00003806  00000+0  17888-3 0  9992
2 64903  97.4326 238.8972 0001173 114.7716 245.3641 15.20198087 48315
PRSC-S1                 
1 65055U 25164A   26160.17551778  .00004262  00000+0  29593-3 0  9999
2 65055  41.1315 332.9315 0007527 296.5791  63.4251 15.06383426 47228
SENTINEL-6B             
1 66514U 25264A   26160.20016233 -.00000029  00000+0  13948-3 0  9992
2 66514  66.0386 151.7676 0008051 269.2091  90.8002 12.80929819 26140
CAS500-3                
1 66655U 25274F   26160.08021161  .00001146  00000+0  12979-3 0  9994
2 66655  97.7447  88.3159 0006336 131.4102 228.7661 14.88301243 28941
CSG-3                   
1 67304U 26001A   26160.09775413  .00000304  00000+0  44692-4 0  9995
2 67304  97.8886 343.8168 0001311  91.8339 268.3025 14.82148066 23269
PRSC-E03                
1 68835U 26092A   26160.23508208  .00002044  00000+0  14252-3 0  9998
2 68835  37.9995 136.5711 0004988 308.6791  51.3524 15.06629462  6750
CAS500-2                
1 69013U 26100AK  26159.72875544  .00007272  00000+0  33535-3 0  9992
2 69013  97.4083  57.7295 0011331  60.7707 299.4660 15.20490947  5522
