OBJECT_NAME,OBJECT_ID,EPOCH,MEAN_MOTION,ECCENTRICITY,INCLINATION,RA_OF_ASC_NODE,ARG_OF_PERICENTER,MEAN_ANOMALY,EPHEMERIS_TYPE,CLASSIFICATION_TYPE,NORAD_CAT_ID,ELEMENT_SET_NO,REV_AT_EPOCH,BSTAR,MEAN_MOTION_DOT,MEAN_MOTION_DDOT
IONOSFERA-M 4,2025-155B,2026-06-09T04:27:47.467584,14.21487248,.0000766,98.6020,122.2101,117.2810,242.8446,0,U,64877,999,4526,.3833E-4,.41E-6,0
MICROCARB,2025-156A,2026-06-09T04:45:34.911072,14.72317356,.0015121,97.9831,237.4782,300.1203,59.8505,0,U,64899,999,4679,.79257E-4,.452E-5,0
CO3D 3,2025-156B,2026-06-09T03:46:26.711040,15.20195883,.0001092,97.4327,238.9657,133.3839,226.7487,0,U,64900,999,4831,.2013E-3,.4292E-4,0
CO3D 4,2025-156C,2026-06-08T23:02:18.631968,15.20199351,.0000729,97.4332,238.7713,27.5039,332.6234,0,U,64901,999,4828,.1617E-4,.283E-5,0
CO3D 2,2025-156D,2026-06-09T04:33:25.873920,15.20210763,.0001419,97.4325,238.8968,115.1478,244.9904,0,U,64902,999,4831,.17213E-3,.3661E-4,0
CO3D 1,2025-156E,2026-06-09T04:33:38.866752,15.20198087,.0001173,97.4326,238.8972,114.7716,245.3641,0,U,64903,999,4831,.17888E-3,.3806E-4,0
PRSC-S1,2025-164A,2026-06-09T04:12:44.736192,15.06383426,.0007527,41.1315,332.9315,296.5791,63.4251,0,U,65055,999,4722,.29593E-3,.4262E-4,0
SENTINEL-6B,2025-264A,2026-06-09T04:48:14.025312,12.80929819,.0008051,66.0386,151.7676,269.2091,90.8002,0,U,66514,999,2614,.13948E-3,-.29E-6,0
CAS500-3,2025-274F,2026-06-09T01:55:30.283104,14.88301243,.0006336,97.7447,88.3159,131.4102,228.7661,0,U,66655,999,2894,.12979E-3,.1146E-4,0
CSG-3,2026-001A,2026-06-09T02:20:45.956832,14.82148066,.0001311,97.8886,343.8168,91.8339,268.3025,0,U,67304,999,2326,.44692E-4,.304E-5,0
PRSC-E03,2026-092A,2026-06-09T05:38:31.091712,15.06629462,.0004988,37.9995,136.5711,308.6791,51.3524,0,U,68835,999,675,.14252E-3,.2044E-4,0
CAS500-2,2026-100AK,2026-06-08T17:29:24.470016,15.20490947,.0011331,97.4083,57.7295,60.7707,299.4660,0,U,69013,999,552,.33535E-3,.7272E-4,0
